[{"OBJECT_NAME":"ONEWEB-0213","OBJECT_ID":"2021-045Z","EPOCH":"2026-03-09T19:49:21.942624","MEAN_MOTION":13.15548944,"ECCENTRICITY":0.00016514,"INCLINATION":87.8948,"RA_OF_ASC_NODE":279.0263,"ARG_OF_PERICENTER":100.3738,"MEAN_ANOMALY":259.7578,"EPHEMERIS_TYPE":0,"CLASSIFICATION_TYPE":"U","NORAD_CAT_ID":48790,"ELEMENT_SET_NO":999,"REV_AT_EPOCH":23137,"BSTAR":-1.66796e-5,"MEAN_MOTION_DOT":7.0e-8,"MEAN_MOTION_DDOT":0},{"OBJECT_NAME":"UNKNOWN","OBJECT_ID":"","EPOCH":"2026-03-08T09:57:13.280256","MEAN_MOTION":12.96028137,"ECCENTRICITY":0.01867223,"INCLINATION":82.6863,"RA_OF_ASC_NODE":323.294,"ARG_OF_PERICENTER":41.5048,"MEAN_ANOMALY":320.007,"EPHEMERIS_TYPE":0,"CLASSIFICATION_TYPE":"U","NORAD_CAT_ID":270284,"ELEMENT_SET_NO":999,"REV_AT_EPOCH":27836,"BSTAR":0.014542864,"MEAN_MOTION_DOT":4.491e-5,"MEAN_MOTION_DDOT":0}]
